[{"OBJECT_NAME":"DONGPO 08","OBJECT_ID":"2022-167E","EPOCH":"2026-03-09T22:57:52.742880","MEAN_MOTION":15.31542505,"ECCENTRICITY":0.00092155,"INCLINATION":97.6764,"RA_OF_ASC_NODE":233.3854,"ARG_OF_PERICENTER":153.9158,"MEAN_ANOMALY":206.2548,"EPHEMERIS_TYPE":0,"CLASSIFICATION_TYPE":"U","NORAD_CAT_ID":54686,"ELEMENT_SET_NO":999,"REV_AT_EPOCH":18012,"BSTAR":0.0004734784,"MEAN_MOTION_DOT":0.0001437,"MEAN_MOTION_DDOT":0},{"OBJECT_NAME":"STARLINK-31488","OBJECT_ID":"2024-036M","EPOCH":"2026-03-09T08:16:21.326592","MEAN_MOTION":15.30195249,"ECCENTRICITY":6.737e-5,"INCLINATION":53.1598,"RA_OF_ASC_NODE":79.5005,"ARG_OF_PERICENTER":99.9246,"MEAN_ANOMALY":260.1831,"EPHEMERIS_TYPE":0,"CLASSIFICATION_TYPE":"U","NORAD_CAT_ID":59009,"ELEMENT_SET_NO":999,"REV_AT_EPOCH":11527,"BSTAR":-0.00016641373,"MEAN_MOTION_DOT":-5.283e-5,"MEAN_MOTION_DDOT":0}]
